0 COSMOS 738
1 07827U 75045G   13283.17491062 -.00000035  00000-0 -13366-3 0  8207
2 07827 074.0185 186.3701 0025912 313.2957 201.1344 12.44179612743002
0 COSMOS 738
1 07827U 75045G   13285.41963897  .00000004  00000-0  13703-3 0  8216
2 07827 074.0183 183.4177 0025927 310.0528 175.2868 12.44179321743289
0 COSMOS 738
1 07827U 75045G   13287.42708459  .00000030  00000-0  32449-3 0  8228
2 07827 074.0179 180.7774 0025931 307.1307 166.6687 12.44179161743537
0 COSMOS 738
1 07827U 75045G   13289.43640318  .00000018  00000-0  23615-3 0  8232
2 07827 074.0174 178.1346 0025938 304.2224 166.4207 12.44179373743789
0 COSMOS 738
1 07827U 75045G   13291.83924785 -.00000017  00000-0 -59879-5 0  8247
2 07827 074.0169 174.9741 0025953 300.7251 128.7991 12.44179778744088
0 COSMOS 738
1 07827U 75045G   13294.10950009 -.00000027  00000-0 -79991-4 0  8256
2 07827 074.0166 171.9878 0025943 297.4371 217.2813 12.44179926744360
0 COSMOS 738
1 07827U 75045G   13296.11935038 -.00000023  00000-0 -47716-4 0  8261
2 07827 074.0165 169.3441 0025967 294.5200 219.4282 12.44179800744614
